#dP2021 10 15  0  0  0.00000000      96 __u+U ITR00 FIT  IAC
## 2179 432000.00000000   900.00000000 59502 0.0000000000000
+  114   C06C07C08C09C10C11C12C13C14C16C19C20C21C22C23C24C25
+        C26C27C28C29C30C32C33C34C35C36C37C38C39C40C41C42C43
+        C44C45C46E01E02E03E04E05E07E08E09E11E12E13E14E15E18
+        E19E21E24E25E26E27E30E31E33E36G01G02G03G04G05G06G07
+        G08G09G10G11G12G13G14G15G16G17G18G19G20G21G22G23G24
+        G25G26G27G28G29G30G31G32R01R02R03R04R05R07R08R09R11
+        R12R13R14R15R16R17R18R19R20R21R22R24  0  0  0  0  0
++         7  7  6  6  7  7  6  8  8  7  7  6  8  7  8  7  8
++         7  8  8  6  7  7  8  6  6  7  6  9  9  8  6  8  7
++         8  7  8  7  7  6  8  6  7  8  7  8  6  7  7  6  8
++         6  8  7  7  7  7  8  6  7  7  6  6  8  7  7  6  7
++         7  7  6  6  7  8  8  6  6  6  8  6  5  6  7  7  6
++         7  6  6  7  7  6  8  7  7  5  8  8  6  7  7  8  7
++         8  5  7  7  9  8  7  6  8  6  7  7  0  0  0  0  0
%c M  cc GPS ccc cccc cccc cccc cccc ccccc ccccc ccccc ccccc
%c cc cc ccc ccc cccc cccc cccc cccc ccccc ccccc ccccc ccccc
%f  0.0000000  0.000000000  0.00000000000  0.000000000000000
%f  0.0000000  0.000000000  0.00000000000  0.000000000000000
%i    0    0    0    0      0      0      0      0         0
%i    0    0    0    0      0      0      0      0         0
/* INFORMATION & ANALYSIS CENTER (IAC)      ULTRA-RAPID DATA
/* S/V CLOCKS ARE ALIGNED TO GNSS TIME                      
/* G:C1WC2W R:C1PC2P E:C1XC5X C:C2IC6I J:C1CC2S             
/* PCV:IGS14_2163 OL/AL:FES2004  NONE     YN ORB:CoN CLK:CoN
*  2021 10 15  2 45  0.00000000
PC06 -14195.936128  39625.461114  -3819.493018    336.705941
PC07  -3753.858787  30690.489837 -28606.075082   -215.504748
PC08 -14482.995341  21538.270087  33182.027801   -863.592848
PC09  -9550.511847  39394.768482 -12103.420099   -185.141665
PC10   4154.269743  33774.691633 -24350.604561      6.728010
PC11 -17949.634822   5874.678255 -20460.736556    631.687941
PC12  -9892.787459 -13323.519309 -22403.140801    739.335579
PC13  -6093.100755  23252.140128  34694.664881    442.416721
PC14 -19680.184637  -4804.572365  19228.444356    586.000730
PC16 -16497.581479  38935.298495    111.062713   -763.838804
PC19  15313.584575  -5418.744644 -22674.319439    948.627011
PC20  20611.957355  12501.115853 -14032.940316   -793.332945
PC21 -13816.479284 -23996.419923  -3534.929972   -931.854785
PC22    980.037233 -20886.879708 -18499.549553   -957.992336
PC23 -10711.287850  15596.908601 -20499.459470   -970.240625
PC24 -25402.005640  -5317.394282  10217.243323   -972.473983
PC25 -25317.597484   8475.703674  -8082.529586   -839.861121
PC26 -11607.179685 -13990.449718  21156.852276    836.039091
PC27   3577.053851  21007.707123  18004.474715    613.349444
PC28 -10531.985043  25703.394207   2613.467967    -14.726279
PC29  17864.529931 -15972.809010  14298.210528    460.651640
PC30  15471.033931   4129.657802  22849.805075    483.512972
PC32  13936.536776  23902.624724   3617.488345   -966.040404
PC33 -15381.361830   5406.028232  22645.306831   -968.228323
PC34 -15872.917194  -3204.776022 -22736.558365   -559.605554
PC35   9893.626711 -25986.154619  -2190.912841    -45.840486
PC36  25711.836477  -7653.120199   7728.113103   -779.052249
PC37  10266.241968  14551.703079 -21468.586936   -874.875514
PC38 -22511.506562  22471.193531  27586.924901    182.360774
PC39 -17648.311868  37850.792472   6373.985364     33.645084
PC40  -6685.109756  25876.687913 -32560.149555    208.578643
PC41  -1291.285992  20691.616953  18723.680195   -923.253002
PC42 -20654.971130 -13227.522405  13355.856274   -960.768373
PC43 -18103.671286  15340.314724 -14704.824121   -960.090248
PC44  -4273.073307 -21026.924783 -17836.049686    431.862475
PC45  10517.328426 -15548.502098  20665.153387    574.144278
PC46  25996.870329   4434.003372  -9176.242840     39.310565
PE01   5226.201764  18744.859747 -22296.345899   -495.703346
PE02  -5357.014550 -18770.141267  22254.074137    253.538318
PE03  -2285.972819 -29475.260295  -1608.324145   -485.231732
PE04  13636.541065  21049.914681 -15722.067311   -877.997390
PE05  10604.963570 -20721.277222 -18290.260665   -241.690388
PE07 -17161.637429      4.646577  24116.579296   -596.142065
PE08 -13788.397648 -20694.105008  16059.451941   5921.467145
PE09  16998.845642   -321.651374 -24233.809943   5497.913180
PE11  24989.292401  -7406.407661  14020.018853   5263.821662
PE12  13363.642541   9902.041741  24483.242157   4960.198237
PE13 -24819.398004   7070.449947 -14489.126878    422.609307
PE14 -15841.393472 -18611.460637 -21466.411159  -1605.257071
PE15 -13311.506584  -9830.687785 -24536.429257    786.701374
PE18  11543.780834  12873.676299  15767.501781  -1763.128178
PE19    628.449275  29334.593355   3919.707898    402.442283
PE21 -14794.585529  10757.201983 -23262.883289   -693.696986
PE24  27505.076553   4713.225469   9903.734719  -1171.650359
PE25  15019.606919 -10618.024920  23206.649561   -550.074801
PE26 -21176.207094  20054.542713   5013.140235   1228.669734
PE27 -27268.441298  -3818.094458 -10839.081871   -142.485520
PE30 -22783.908867 -16635.628509   8937.467726   2539.560789
PE31  23627.986458  16016.460614  -7827.141105   -486.789515
PE33  -5991.567318  20883.611811  20104.315407   -463.737675
PE36  21686.107406 -19742.099170  -4035.017163   -276.149951
PG01   4824.082534 -17156.233608 -19851.843053    539.079408
PG02 -21597.621091  15420.734903   2525.836787   -637.476691
PG03  -4940.271411 -18350.912115 -18703.255624   -325.282887
PG04    332.465426 -26400.275281   2522.478184   -203.633598
PG05  -9709.761299  11867.501224  21528.686408    -57.698149
PG06 -23909.679866   4308.491631 -10736.729746     94.849470
PG07 -11814.602434 -11140.591102  21457.499699    262.576856
PG08   6782.932374 -23911.214778   8890.087134    -40.144716
PG09  -8467.647608 -21639.246322  12769.065434   -361.813705
PG10  23748.213808  11214.722702  -4777.065841   -224.149265
PG11 -23853.298964  11601.044718   1212.230080     21.202950
PG12   2476.914828  18333.441428 -19358.361229   -111.695627
PG13 -12907.493635  18542.407289  13693.984952    199.741076
PG14 -23238.432457 -11875.662879  -5093.252038    -19.101402
PG15  -3981.723947  24762.464571   7813.946255   -113.884414
PG16  14201.689005  -7214.430398  21084.030330   -407.215337
PG17 -12803.687829  -9932.535855 -20606.029771    519.302177
PG18  12747.163252   9863.178267  21118.505091    310.078911
PG19 -15019.967919   -165.881669 -22163.041001     65.994157
PG20 -19279.491255   5287.741708  17331.319628    518.636116
PG21  12693.379914 -18579.188990 -12969.012684    147.651413
PG22   2756.884015 -15874.454725 -20967.906458   -489.052391
PG23  19569.233504  16871.984419   6307.343068     45.022946
PG24  -8162.915442  19250.512428 -16408.078290    253.652930
PG25  13237.425978  19281.327047 -13106.769084    224.568526
PG26  22826.847985   1574.929192  13665.425948    144.973688
PG27  12079.574766 -16354.891870  16702.890438   -206.348795
PG28 -22421.727039  -7833.080679 -11130.283555    482.367668
PG29   4130.891542  24012.454626  10448.415371   -426.385402
PG30 -20900.352943  -3089.681681  16304.190394   -482.440147
PG31  24839.029253  -5341.199418  -8627.329273   -144.986440
PG32  14776.769983   5486.832140 -21285.792789    -10.307456
PR01   6375.719889  23092.289448   8743.373936     86.694895
PR02  13916.960297  18105.834792 -11400.123046    496.681984
PR03  12465.127498   2036.849195 -22135.967727     44.714299
PR04   3822.218115 -14831.400573 -20374.637625    109.435569
PR05  -6723.064354 -23493.103472  -7266.592223     80.709438
PR07 -12210.576362  -1210.331810  22385.298032    -40.628085
PR08  -3872.354761  14955.155344  20354.231056    -61.494207
PR09 -21312.143319  -7628.456503  11850.938521     18.314001
PR11 -14806.183395   7884.492509 -19206.699919     49.957660
PR12   4905.317008  11183.526708 -22366.113738    270.152303
PR13  20691.423714   7827.226294 -12708.960589    -62.114795
PR14  24908.800897   -362.357156   5466.447892     69.919295
PR15  14290.644050  -8034.860176  19566.341420    100.844473
PR16  -6348.274041 -11177.650561  21992.719697    -23.185424
PR17  16419.355166  -9381.533015  17154.493318    466.461812
PR18  15770.156229 -19920.998659   2021.393222     93.803921
PR19   8040.559390 -20121.320099 -13470.238346   -163.155701
PR20  -7155.755469  -7590.802104 -23267.688864    -57.573552
PR21 -16667.185112  10411.569466 -16239.717806   -246.848374
PR22 -15601.924034  20213.691110  -1010.535494   -138.970367
PR24   8173.712386   7118.847300  23107.246797     62.736880
EOF
